TROLL                   
1 62658U 25009BB  26068.22522958  .00013174  00000+0  48220-3 0  9994
2 62658  97.3932 150.7169 0001816  59.1850 300.9568 15.28164315118170
STARLINK-33826          
1 63641U 25083H   26068.19991251  .00042536  00000+0  15460-2 0  9994
2 63641  43.0033   7.8334 0001423 247.1375 112.9326 15.27587536 49993
